[{"OBJECT_NAME":"STARLINK-31334","OBJECT_ID":"2024-044F","EPOCH":"2026-03-09T19:35:27.224448","MEAN_MOTION":15.27573584,"ECCENTRICITY":0.00013039,"INCLINATION":43.0034,"RA_OF_ASC_NODE":109.8659,"ARG_OF_PERICENTER":290.5191,"MEAN_ANOMALY":69.5521,"EPHEMERIS_TYPE":0,"CLASSIFICATION_TYPE":"U","NORAD_CAT_ID":59157,"ELEMENT_SET_NO":999,"REV_AT_EPOCH":11354,"BSTAR":-6.8658166e-5,"MEAN_MOTION_DOT":-2.151e-5,"MEAN_MOTION_DDOT":0},{"OBJECT_NAME":"COSMOS 1862","OBJECT_ID":"1987-055A","EPOCH":"2026-03-09T22:37:02.390592","MEAN_MOTION":15.30492139,"ECCENTRICITY":0.00097484,"INCLINATION":82.4856,"RA_OF_ASC_NODE":47.1862,"ARG_OF_PERICENTER":26.6325,"MEAN_ANOMALY":333.5414,"EPHEMERIS_TYPE":0,"CLASSIFICATION_TYPE":"U","NORAD_CAT_ID":18152,"ELEMENT_SET_NO":999,"REV_AT_EPOCH":8987,"BSTAR":0.00034125048,"MEAN_MOTION_DOT":0.00010107,"MEAN_MOTION_DDOT":0}]
